KSLV-II R/B             
1 66663U 25274P   25345.82274950  .00008093  00000+0  68440-3 0  9997
2 66663  97.7408 273.1734 0051472 322.7433  37.0222 14.97283545  2279
SOYUZ-MS 28             
1 66664U 25275A   25345.89616116  .00014378  00000+0  26381-3 0  9991
2 66664  51.6307 146.6565 0003298 237.1442 122.9229 15.49521399  2311
STARLINK-35867          
1 66791U 25278A   25346.10653125 -.00254517  00000+0 -89052-3 0  9998
2 66791  42.9977 256.0517 0002208 290.2999  69.7638 15.88846618  1732
STARLINK-35990          
1 66792U 25278B   25346.10625227 -.00278861  00000+0 -97725-3 0  9995
2 66792  42.9974 256.0489 0002150 295.8927  64.1725 15.88872737  1733
STARLINK-36051          
1 66793U 25278C   25346.10535413 -.00310823  00000+0 -10906-2 0  9993
2 66793  42.9976 256.0420 0002077 291.6120  68.4533 15.88923268  1738
STARLINK-36062          
1 66794U 25278D   25346.10573878 -.00280004  00000+0 -97978-3 0  9993
2 66794  42.9970 256.0455 0002181 288.6802  71.3835 15.88905117  1731
STARLINK-36047          
1 66795U 25278E   25346.10488084 -.00301239  00000+0 -10544-2 0  9995
2 66795  42.9978 256.0378 0001983 294.8344  65.2324 15.88950119  1730
STARLINK-35964          
1 66796U 25278F   25346.11825453 -.00545393  11351-3 -85324-3 0  9997
2 66796  42.9959 255.2331 0004130 249.7843 110.2593 16.02988204  1743
STARLINK-36099          
1 66797U 25278G   25346.10392571 -.00235686  00000+0 -81557-3 0  9997
2 66797  42.9972 256.0298 0002185 300.4321  59.6338 15.89020239  1735
STARLINK-36041          
1 66798U 25278H   25346.10356525 -.00321249  00000+0 -11229-2 0  9996
2 66798  42.9978 256.0268 0002180 292.7128  67.3515 15.89021243  1731
STARLINK-36044          
1 66799U 25278J   25346.16603265 -.00345028  00000+0 -12174-2 0  9990
2 66799  42.9973 255.6342 0001920 265.2861  94.7794 15.88891630  1743
STARLINK-35996          
1 66800U 25278K   25346.16522638 -.00256637  00000+0 -89065-3 0  9998
2 66800  42.9972 255.6266 0002171 261.5835  98.4793 15.89012909  1744
