CCSDS_OMM_VERS = 2.0
CREATION_DATE  = 
ORIGINATOR     = 

OBJECT_NAME    = KSLV-II R/B
OBJECT_ID      = 2025-274P
CENTER_NAME    = EARTH
REF_FRAME      = TEME
TIME_SYSTEM    = UTC
MEAN_ELEMENT_THEORY = SGP/SGP4

EPOCH          = 2025-12-11T19:44:45.556800
MEAN_MOTION    = 14.97283545
ECCENTRICITY   = .0051472
INCLINATION    = 97.7408
RA_OF_ASC_NODE = 273.1734
ARG_OF_PERICENTER = 322.7433
MEAN_ANOMALY   = 37.0222

EPHEMERIS_TYPE = 0
CLASSIFICATION_TYPE = U
NORAD_CAT_ID   = 66663
ELEMENT_SET_NO = 999
REV_AT_EPOCH   = 227
BSTAR          = .6844E-3
MEAN_MOTION_DOT = .8093E-4
MEAN_MOTION_DDOT = 0

CCSDS_OMM_VERS = 2.0
CREATION_DATE  = 
ORIGINATOR     = 

OBJECT_NAME    = SOYUZ-MS 28
OBJECT_ID      = 2025-275A
CENTER_NAME    = EARTH
REF_FRAME      = TEME
TIME_SYSTEM    = UTC
MEAN_ELEMENT_THEORY = SGP/SGP4

EPOCH          = 2025-12-11T21:30:28.324224
MEAN_MOTION    = 15.49521399
ECCENTRICITY   = .0003298
INCLINATION    = 51.6307
RA_OF_ASC_NODE = 146.6565
ARG_OF_PERICENTER = 237.1442
MEAN_ANOMALY   = 122.9229

EPHEMERIS_TYPE = 0
CLASSIFICATION_TYPE = U
NORAD_CAT_ID   = 66664
ELEMENT_SET_NO = 999
REV_AT_EPOCH   = 231
BSTAR          = .26381E-3
MEAN_MOTION_DOT = .14378E-3
MEAN_MOTION_DDOT = 0

CCSDS_OMM_VERS = 2.0
CREATION_DATE  = 
ORIGINATOR     = 

OBJECT_NAME    = STARLINK-35867
OBJECT_ID      = 2025-278A
CENTER_NAME    = EARTH
REF_FRAME      = TEME
TIME_SYSTEM    = UTC
MEAN_ELEMENT_THEORY = SGP/SGP4

EPOCH          = 2025-12-12T02:33:24.300000
MEAN_MOTION    = 15.88846618
ECCENTRICITY   = .0002208
INCLINATION    = 42.9977
RA_OF_ASC_NODE = 256.0517
ARG_OF_PERICENTER = 290.2999
MEAN_ANOMALY   = 69.7638

EPHEMERIS_TYPE = 0
CLASSIFICATION_TYPE = U
NORAD_CAT_ID   = 66791
ELEMENT_SET_NO = 999
REV_AT_EPOCH   = 173
BSTAR          = -.89052E-3
MEAN_MOTION_DOT = -.254517E-2
MEAN_MOTION_DDOT = 0

CCSDS_OMM_VERS = 2.0
CREATION_DATE  = 
ORIGINATOR     = 

OBJECT_NAME    = STARLINK-35990
OBJECT_ID      = 2025-278B
CENTER_NAME    = EARTH
REF_FRAME      = TEME
TIME_SYSTEM    = UTC
MEAN_ELEMENT_THEORY = SGP/SGP4

EPOCH          = 2025-12-12T02:33:00.196128
MEAN_MOTION    = 15.88872737
ECCENTRICITY   = .000215
INCLINATION    = 42.9974
RA_OF_ASC_NODE = 256.0489
ARG_OF_PERICENTER = 295.8927
MEAN_ANOMALY   = 64.1725

EPHEMERIS_TYPE = 0
CLASSIFICATION_TYPE = U
NORAD_CAT_ID   = 66792
ELEMENT_SET_NO = 999
REV_AT_EPOCH   = 173
BSTAR          = -.97725E-3
MEAN_MOTION_DOT = -.278861E-2
MEAN_MOTION_DDOT = 0

CCSDS_OMM_VERS = 2.0
CREATION_DATE  = 
ORIGINATOR     = 

OBJECT_NAME    = STARLINK-36051
OBJECT_ID      = 2025-278C
CENTER_NAME    = EARTH
REF_FRAME      = TEME
TIME_SYSTEM    = UTC
MEAN_ELEMENT_THEORY = SGP/SGP4

EPOCH          = 2025-12-12T02:31:42.596832
MEAN_MOTION    = 15.88923268
ECCENTRICITY   = .0002077
INCLINATION    = 42.9976
RA_OF_ASC_NODE = 256.0420
ARG_OF_PERICENTER = 291.6120
MEAN_ANOMALY   = 68.4533

EPHEMERIS_TYPE = 0
CLASSIFICATION_TYPE = U
NORAD_CAT_ID   = 66793
ELEMENT_SET_NO = 999
REV_AT_EPOCH   = 173
BSTAR          = -.10906E-2
MEAN_MOTION_DOT = -.310823E-2
MEAN_MOTION_DDOT = 0

CCSDS_OMM_VERS = 2.0
CREATION_DATE  = 
ORIGINATOR     = 

OBJECT_NAME    = STARLINK-36062
OBJECT_ID      = 2025-278D
CENTER_NAME    = EARTH
REF_FRAME      = TEME
TIME_SYSTEM    = UTC
MEAN_ELEMENT_THEORY = SGP/SGP4

EPOCH          = 2025-12-12T02:32:15.830592
MEAN_MOTION    = 15.88905117
ECCENTRICITY   = .0002181
INCLINATION    = 42.9970
RA_OF_ASC_NODE = 256.0455
ARG_OF_PERICENTER = 288.6802
MEAN_ANOMALY   = 71.3835

EPHEMERIS_TYPE = 0
CLASSIFICATION_TYPE = U
NORAD_CAT_ID   = 66794
ELEMENT_SET_NO = 999
REV_AT_EPOCH   = 173
BSTAR          = -.97978E-3
MEAN_MOTION_DOT = -.280004E-2
MEAN_MOTION_DDOT = 0

CCSDS_OMM_VERS = 2.0
CREATION_DATE  = 
ORIGINATOR     = 

OBJECT_NAME    = STARLINK-36047
OBJECT_ID      = 2025-278E
CENTER_NAME    = EARTH
REF_FRAME      = TEME
TIME_SYSTEM    = UTC
MEAN_ELEMENT_THEORY = SGP/SGP4

EPOCH          = 2025-12-12T02:31:01.704576
MEAN_MOTION    = 15.88950119
ECCENTRICITY   = .0001983
INCLINATION    = 42.9978
RA_OF_ASC_NODE = 256.0378
ARG_OF_PERICENTER = 294.8344
MEAN_ANOMALY   = 65.2324

EPHEMERIS_TYPE = 0
CLASSIFICATION_TYPE = U
NORAD_CAT_ID   = 66795
ELEMENT_SET_NO = 999
REV_AT_EPOCH   = 173
BSTAR          = -.10544E-2
MEAN_MOTION_DOT = -.301239E-2
MEAN_MOTION_DDOT = 0

CCSDS_OMM_VERS = 2.0
CREATION_DATE  = 
ORIGINATOR     = 

OBJECT_NAME    = STARLINK-35964
OBJECT_ID      = 2025-278F
CENTER_NAME    = EARTH
REF_FRAME      = TEME
TIME_SYSTEM    = UTC
MEAN_ELEMENT_THEORY = SGP/SGP4

EPOCH          = 2025-12-12T02:50:17.191392
MEAN_MOTION    = 16.02988204
ECCENTRICITY   = .000413
INCLINATION    = 42.9959
RA_OF_ASC_NODE = 255.2331
ARG_OF_PERICENTER = 249.7843
MEAN_ANOMALY   = 110.2593

EPHEMERIS_TYPE = 0
CLASSIFICATION_TYPE = U
NORAD_CAT_ID   = 66796
ELEMENT_SET_NO = 999
REV_AT_EPOCH   = 174
BSTAR          = -.85324E-3
MEAN_MOTION_DOT = -.545393E-2
MEAN_MOTION_DDOT = .11351E-3

CCSDS_OMM_VERS = 2.0
CREATION_DATE  = 
ORIGINATOR     = 

OBJECT_NAME    = STARLINK-36099
OBJECT_ID      = 2025-278G
CENTER_NAME    = EARTH
REF_FRAME      = TEME
TIME_SYSTEM    = UTC
MEAN_ELEMENT_THEORY = SGP/SGP4

EPOCH          = 2025-12-12T02:29:39.181344
MEAN_MOTION    = 15.89020239
ECCENTRICITY   = .0002185
INCLINATION    = 42.9972
RA_OF_ASC_NODE = 256.0298
ARG_OF_PERICENTER = 300.4321
MEAN_ANOMALY   = 59.6338

EPHEMERIS_TYPE = 0
CLASSIFICATION_TYPE = U
NORAD_CAT_ID   = 66797
ELEMENT_SET_NO = 999
REV_AT_EPOCH   = 173
BSTAR          = -.81557E-3
MEAN_MOTION_DOT = -.235686E-2
MEAN_MOTION_DDOT = 0

CCSDS_OMM_VERS = 2.0
CREATION_DATE  = 
ORIGINATOR     = 

OBJECT_NAME    = STARLINK-36041
OBJECT_ID      = 2025-278H
CENTER_NAME    = EARTH
REF_FRAME      = TEME
TIME_SYSTEM    = UTC
MEAN_ELEMENT_THEORY = SGP/SGP4

EPOCH          = 2025-12-12T02:29:08.037600
MEAN_MOTION    = 15.89021243
ECCENTRICITY   = .000218
INCLINATION    = 42.9978
RA_OF_ASC_NODE = 256.0268
ARG_OF_PERICENTER = 292.7128
MEAN_ANOMALY   = 67.3515

EPHEMERIS_TYPE = 0
CLASSIFICATION_TYPE = U
NORAD_CAT_ID   = 66798
ELEMENT_SET_NO = 999
REV_AT_EPOCH   = 173
BSTAR          = -.11229E-2
MEAN_MOTION_DOT = -.321249E-2
MEAN_MOTION_DDOT = 0

CCSDS_OMM_VERS = 2.0
CREATION_DATE  = 
ORIGINATOR     = 

OBJECT_NAME    = STARLINK-36044
OBJECT_ID      = 2025-278J
CENTER_NAME    = EARTH
REF_FRAME      = TEME
TIME_SYSTEM    = UTC
MEAN_ELEMENT_THEORY = SGP/SGP4

EPOCH          = 2025-12-12T03:59:05.220960
MEAN_MOTION    = 15.88891630
ECCENTRICITY   = .000192
INCLINATION    = 42.9973
RA_OF_ASC_NODE = 255.6342
ARG_OF_PERICENTER = 265.2861
MEAN_ANOMALY   = 94.7794

EPHEMERIS_TYPE = 0
CLASSIFICATION_TYPE = U
NORAD_CAT_ID   = 66799
ELEMENT_SET_NO = 999
REV_AT_EPOCH   = 174
BSTAR          = -.12174E-2
MEAN_MOTION_DOT = -.345028E-2
MEAN_MOTION_DDOT = 0

CCSDS_OMM_VERS = 2.0
CREATION_DATE  = 
ORIGINATOR     = 

OBJECT_NAME    = STARLINK-35996
OBJECT_ID      = 2025-278K
CENTER_NAME    = EARTH
REF_FRAME      = TEME
TIME_SYSTEM    = UTC
MEAN_ELEMENT_THEORY = SGP/SGP4

EPOCH          = 2025-12-12T03:57:55.559232
MEAN_MOTION    = 15.89012909
ECCENTRICITY   = .0002171
INCLINATION    = 42.9972
RA_OF_ASC_NODE = 255.6266
ARG_OF_PERICENTER = 261.5835
MEAN_ANOMALY   = 98.4793

EPHEMERIS_TYPE = 0
CLASSIFICATION_TYPE = U
NORAD_CAT_ID   = 66800
ELEMENT_SET_NO = 999
REV_AT_EPOCH   = 174
BSTAR          = -.89065E-3
MEAN_MOTION_DOT = -.256637E-2
MEAN_MOTION_DDOT = 0

